[{"OBJECT_NAME":"NAHLA","OBJECT_ID":"2025-276DC","EPOCH":"2026-03-09T17:58:03.160416","MEAN_MOTION":15.18321471,"ECCENTRICITY":0.00019909,"INCLINATION":97.4271,"RA_OF_ASC_NODE":143.9992,"ARG_OF_PERICENTER":353.62,"MEAN_ANOMALY":6.5008,"EPHEMERIS_TYPE":0,"CLASSIFICATION_TYPE":"U","NORAD_CAT_ID":66764,"ELEMENT_SET_NO":999,"REV_AT_EPOCH":1532,"BSTAR":0.00020881065,"MEAN_MOTION_DOT":4.218e-5,"MEAN_MOTION_DDOT":0},{"OBJECT_NAME":"OBJECT J","OBJECT_ID":"2022-019J","EPOCH":"2026-03-09T22:43:41.570688","MEAN_MOTION":15.19970869,"ECCENTRICITY":0.00078987,"INCLINATION":97.3535,"RA_OF_ASC_NODE":134.3032,"ARG_OF_PERICENTER":206.0852,"MEAN_ANOMALY":153.9986,"EPHEMERIS_TYPE":0,"CLASSIFICATION_TYPE":"U","NORAD_CAT_ID":51832,"ELEMENT_SET_NO":999,"REV_AT_EPOCH":22272,"BSTAR":8.5341526e-5,"MEAN_MOTION_DOT":1.77e-5,"MEAN_MOTION_DDOT":0}]
